{
    "links": {
        "self": "http://www.neowsapp.com/rest/v1/neo/3596044?api_key=iIulBulltgU6a56xZRHN4H3l9WmuAYTsLGpBGhQ2"
    },
    "id": "3596044",
    "neo_reference_id": "3596044",
    "name": "(2012 BL14)",
    "designation": "2012 BL14",
    "nasa_jpl_url": "http://ssd.jpl.nasa.gov/sbdb.cgi?sstr=3596044",
    "absolute_magnitude_h": 28.2,
    "estimated_diameter": {
        "kilometers": {
            "estimated_diameter_min": 0.0060891262,
            "estimated_diameter_max": 0.0136157002
        },
        "meters": {
            "estimated_diameter_min": 6.0891262211,
            "estimated_diameter_max": 13.6157001539
        },
        "miles": {
            "estimated_diameter_min": 0.0037836064,
            "estimated_diameter_max": 0.0084604012
        },
        "feet": {
            "estimated_diameter_min": 19.9774488711,
            "estimated_diameter_max": 44.6709336928
        }
    },
    "is_potentially_hazardous_asteroid": false,
    "close_approach_data": [
        {
            "close_approach_date": "2012-01-19",
            "close_approach_date_full": "2012-Jan-19 21:07",
            "epoch_date_close_approach": 1327007220000,
            "relative_velocity": {
                "kilometers_per_second": "20.601000734",
                "kilometers_per_hour": "74163.6026423946",
                "miles_per_hour": "46082.3785418812"
            },
            "miss_distance": {
                "astronomical": "0.0047720733",
                "lunar": "1.8563365137",
                "kilometers": "713892.001163871",
                "miles": "443591.9198925798"
            },
            "orbiting_body": "Moon"
        },
        {
            "close_approach_date": "2012-01-20",
            "close_approach_date_full": "2012-Jan-20 00:33",
            "epoch_date_close_approach": 1327019580000,
            "relative_velocity": {
                "kilometers_per_second": "19.8923912494",
                "kilometers_per_hour": "71612.6084980114",
                "miles_per_hour": "44497.2899858893"
            },
            "miss_distance": {
                "astronomical": "0.0030833",
                "lunar": "1.1994037",
                "kilometers": "461255.112571",
                "miles": "286610.6366398"
            },
            "orbiting_body": "Earth"
        }
    ],
    "orbital_data": {
        "orbit_id": "4",
        "orbit_determination_date": "2017-04-06 08:51:18",
        "first_observation_date": "2012-01-21",
        "last_observation_date": "2012-01-21",
        "data_arc_in_days": null,
        "observations_used": 17,
        "orbit_uncertainty": "9",
        "minimum_orbit_intersection": ".00126637",
        "jupiter_tisserand_invariant": "3.884",
        "epoch_osculation": "2455947.5",
        "eccentricity": ".6535938648820084",
        "semi_major_axis": "1.723730279167213",
        "inclination": "6.833389450735345",
        "ascending_node_longitude": "119.6270264290789",
        "orbital_period": "826.6133075960199",
        "perihelion_distance": ".5971107439921709",
        "perihelion_argument": "269.6632788940747",
        "aphelion_distance": "2.850349814342255",
        "perihelion_time": "2455898.948254810481",
        "mean_anomaly": "21.14486678064581",
        "mean_motion": ".4355119820741359",
        "equinox": "J2000",
        "orbit_class": {
            "orbit_class_type": "APO",
            "orbit_class_description": "Near-Earth asteroid orbits which cross the Earth’s orbit similar to that of 1862 Apollo",
            "orbit_class_range": "a (semi-major axis) > 1.0 AU; q (perihelion) < 1.017 AU"
        }
    },
    "is_sentry_object": false
}